OBJECT_NAME,OBJECT_ID,EPOCH,MEAN_MOTION,ECCENTRICITY,INCLINATION,RA_OF_ASC_NODE,ARG_OF_PERICENTER,MEAN_ANOMALY,EPHEMERIS_TYPE,CLASSIFICATION_TYPE,NORAD_CAT_ID,ELEMENT_SET_NO,REV_AT_EPOCH,BSTAR,MEAN_MOTION_DOT,MEAN_MOTION_DDOT
ONEWEB-0053,2020-008AC,2026-06-17T15:48:25.776288,13.10418991,.00017017,87.8818,36.1878,66.9709,293.1598,0,U,45157,999,30797,.12187955E-1,.4272E-4,0
ONEWEB-0054,2020-008AD,2026-06-17T14:48:49.134240,13.10371441,.0001913,87.8840,36.1819,85.0187,275.1159,0,U,45158,999,30808,.87347E-3,.318E-5,0
ONEWEB-0056,2020-008AE,2026-06-17T15:57:47.525760,13.10433093,.00023541,87.8832,36.1680,82.0926,278.0469,0,U,45159,999,30824,.14764314E-1,.5174E-4,0
ONEWEB-0057,2020-008AF,2026-06-17T14:32:16.220256,13.10376077,.0002123,87.8840,36.1899,70.6201,289.5156,0,U,45160,999,30840,.65784E-3,.242E-5,0
ONEWEB-0058,2020-008AG,2026-06-17T16:03:05.192640,13.10374924,.00015663,87.8830,36.1836,84.1293,276.0013,0,U,45161,999,30848,-.13050732E-2,-.443E-5,0
ONEWEB-0059,2020-008AH,2026-06-17T15:58:13.419840,13.10414881,.00012074,87.8789,36.1815,70.1411,289.9847,0,U,45162,999,30838,.10578744E-1,.3709E-4,0
ONEWEB-0062,2020-008AJ,2026-06-17T14:41:26.589984,13.10375358,.0001516,87.8839,36.1809,93.4369,266.6932,0,U,45163,999,30824,.13742E-2,.492E-5,0
ONEWEB-0065,2020-008AK,2026-06-17T15:29:26.236320,13.10284208,.00028499,87.8823,36.1833,95.3748,264.7705,0,U,45164,999,30794,-.25641328E-1,-.8918E-4,0
ONEWEB-0066,2020-020A,2026-06-17T14:30:25.888320,13.11413940,.0001674,87.8884,20.9880,81.5336,278.5981,0,U,45424,999,30273,-.6981E-3,-.235E-5,0
ONEWEB-0067,2020-020B,2026-06-17T15:24:59.782176,13.11425816,.00019505,87.8906,20.9025,81.6724,278.4625,0,U,45425,999,30279,.69949228E-3,.261E-5,0
ONEWEB-0080,2020-020C,2026-06-17T15:24:21.515616,13.11419266,.00016085,87.8897,20.9770,93.5322,266.5990,0,U,45426,999,30276,.69270087E-3,.258E-5,0
ONEWEB-0090,2020-020D,2026-06-17T12:26:07.683072,13.11413822,.00017756,87.8893,21.0061,87.8658,272.2673,0,U,45427,999,30271,.28232246E-3,.113E-5,0
ONEWEB-0061,2020-020E,2026-06-17T15:01:57.936000,13.11418157,.00017718,87.8892,20.9694,85.3719,274.7611,0,U,45428,999,30268,-.14450961E-2,-.499E-5,0
ONEWEB-0081,2020-020F,2026-06-17T14:35:18.748896,13.11414477,.0001786,87.8888,20.9832,79.0302,281.1026,0,U,45429,999,30279,-.12063E-2,-.415E-5,0
ONEWEB-0069,2020-020G,2026-06-17T14:37:56.854848,13.11414217,.0001815,87.8891,20.9856,82.9857,277.1477,0,U,45430,999,30272,-.12815E-2,-.441E-5,0
ONEWEB-0031,2020-020H,2026-06-17T15:29:02.483232,13.11419639,.00017256,87.8885,20.9839,90.6238,269.5088,0,U,45431,999,30271,.11913003E-2,.435E-5,0
ONEWEB-0027,2020-020J,2026-06-18T00:00:02.999808,13.17637489,.00020336,87.9137,5.7023,104.2720,158.6638,0,U,45432,999,519,.76473086E-1,.29797E-3,0
ONEWEB-0064,2020-020K,2026-06-17T02:37:32.235168,13.11417863,.00017927,87.8889,21.0822,91.8935,268.2399,0,U,45433,999,30267,.10858724E-2,.398E-5,0
ONEWEB-0018,2020-020L,2026-06-17T16:12:47.636640,13.11417158,.00014425,87.8887,20.9689,79.2331,280.8959,0,U,45434,999,30269,.17711169E-3,.75E-6,0
ONEWEB-0083,2020-020M,2026-06-17T15:58:33.075840,13.11415851,.00017493,87.8892,20.9647,87.0044,273.1284,0,U,45435,999,30273,.11143905E-2,.408E-5,0
ONEWEB-0095,2020-020N,2026-06-17T12:06:36.561312,13.11421182,.00024784,87.8894,21.0053,92.4722,267.6689,0,U,45436,999,30271,.14349556E-2,.521E-5,0
ONEWEB-0092,2020-020P,2026-06-17T14:40:11.332128,13.11421568,.0002132,87.8891,20.9756,83.8866,276.2505,0,U,45437,999,30284,-.14509E-2,-.502E-5,0
ONEWEB-0085,2020-020Q,2026-06-17T15:58:09.061824,13.11415410,.00018193,87.8886,20.9715,85.7124,274.4212,0,U,45438,999,30273,.11396094E-2,.417E-5,0
ONEWEB-0096,2020-020R,2026-06-17T16:00:46.464480,13.11421310,.000188,87.8894,20.9670,88.0631,272.0712,0,U,45439,999,30272,.11005761E-2,.403E-5,0
ONEWEB-0037,2020-020S,2026-06-17T14:58:37.005888,13.11913604,.00018962,87.8906,20.9492,85.7603,274.3742,0,U,45440,999,30275,-.11125884E-2,-.384E-5,0
ONEWEB-0042,2020-020T,2026-06-17T15:45:56.932416,13.11416062,.00018333,87.8893,20.9654,82.2058,277.9278,0,U,45441,999,30272,.15565683E-2,.564E-5,0
ONEWEB-0098,2020-020U,2026-06-17T12:00:18.366048,13.11417423,.00017658,87.8891,21.0060,87.2645,272.8685,0,U,45442,999,30268,.13804603E-2,.502E-5,0
ONEWEB-0055,2020-020V,2026-06-17T15:09:19.500480,13.11419168,.00017667,87.8894,20.9787,87.7184,272.4147,0,U,45443,999,30267,-.5431769E-3,-.18E-5,0
ONEWEB-0093,2020-020W,2026-06-17T14:40:23.428128,13.11415139,.0001901,87.8893,20.9753,73.0816,287.0520,0,U,45444,999,30273,-.13628E-2,-.47E-5,0
ONEWEB-0029,2020-020X,2026-06-17T15:19:27.483456,13.11418799,.00017256,87.8887,20.9795,77.7082,282.4239,0,U,45445,999,30271,-.72653507E-3,-.245E-5,0
