[
  {
    "name": "ONEWEB-0053",
    "noradId": "45157",
    "line1": "1 45157U 20008AC  26168.65863167  .00004272  00000+0  12188-1 0  9992",
    "line2": "2 45157  87.8818  36.1878 0001701  66.9709 293.1598 13.10418991307973"
  },
  {
    "name": "ONEWEB-0054",
    "noradId": "45158",
    "line1": "1 45158U 20008AD  26168.61723535  .00000318  00000+0  87347-3 0  9991",
    "line2": "2 45158  87.8840  36.1819 0001913  85.0187 275.1159 13.10371441308085"
  },
  {
    "name": "ONEWEB-0056",
    "noradId": "45159",
    "line1": "1 45159U 20008AE  26168.66513340  .00005174  00000+0  14764-1 0  9994",
    "line2": "2 45159  87.8832  36.1680 0002354  82.0926 278.0469 13.10433093308247"
  },
  {
    "name": "ONEWEB-0057",
    "noradId": "45160",
    "line1": "1 45160U 20008AF  26168.60574329  .00000242  00000+0  65784-3 0  9995",
    "line2": "2 45160  87.8840  36.1899 0002123  70.6201 289.5156 13.10376077308409"
  },
  {
    "name": "ONEWEB-0058",
    "noradId": "45161",
    "line1": "1 45161U 20008AG  26168.66881010 -.00000443  00000+0 -13051-2 0  9994",
    "line2": "2 45161  87.8830  36.1836 0001566  84.1293 276.0013 13.10374924308481"
  },
  {
    "name": "ONEWEB-0059",
    "noradId": "45162",
    "line1": "1 45162U 20008AH  26168.66543310  .00003709  00000+0  10579-1 0  9990",
    "line2": "2 45162  87.8789  36.1815 0001207  70.1411 289.9847 13.10414881308385"
  },
  {
    "name": "ONEWEB-0062",
    "noradId": "45163",
    "line1": "1 45163U 20008AJ  26168.61211331  .00000492  00000+0  13742-2 0  9993",
    "line2": "2 45163  87.8839  36.1809 0001516  93.4369 266.6932 13.10375358308245"
  },
  {
    "name": "ONEWEB-0065",
    "noradId": "45164",
    "line1": "1 45164U 20008AK  26168.64544255 -.00008918  00000+0 -25641-1 0  9994",
    "line2": "2 45164  87.8823  36.1833 0002849  95.3748 264.7705 13.10284208307944"
  },
  {
    "name": "ONEWEB-0066",
    "noradId": "45424",
    "line1": "1 45424U 20020A   26168.60446630 -.00000235  00000+0 -69810-3 0  9993",
    "line2": "2 45424  87.8884  20.9880 0001674  81.5336 278.5981 13.11413940302737"
  },
  {
    "name": "ONEWEB-0067",
    "noradId": "45425",
    "line1": "1 45425U 20020B   26168.64235859  .00000261  00000+0  69949-3 0  9997",
    "line2": "2 45425  87.8906  20.9025 0001950  81.6724 278.4625 13.11425816302798"
  },
  {
    "name": "ONEWEB-0080",
    "noradId": "45426",
    "line1": "1 45426U 20020C   26168.64191569  .00000258  00000+0  69270-3 0  9990",
    "line2": "2 45426  87.8897  20.9770 0001608  93.5322 266.5990 13.11419266302763"
  },
  {
    "name": "ONEWEB-0090",
    "noradId": "45427",
    "line1": "1 45427U 20020D   26168.51814448  .00000113  00000+0  28232-3 0  9998",
    "line2": "2 45427  87.8893  21.0061 0001775  87.8658 272.2673 13.11413822302717"
  },
  {
    "name": "ONEWEB-0061",
    "noradId": "45428",
    "line1": "1 45428U 20020E   26168.62636500 -.00000499  00000+0 -14451-2 0  9998",
    "line2": "2 45428  87.8892  20.9694 0001771  85.3719 274.7611 13.11418157302685"
  },
  {
    "name": "ONEWEB-0081",
    "noradId": "45429",
    "line1": "1 45429U 20020F   26168.60785589 -.00000415  00000+0 -12063-2 0  9994",
    "line2": "2 45429  87.8888  20.9832 0001786  79.0302 281.1026 13.11414477302794"
  },
  {
    "name": "ONEWEB-0069",
    "noradId": "45430",
    "line1": "1 45430U 20020G   26168.60968582 -.00000441  00000+0 -12815-2 0  9996",
    "line2": "2 45430  87.8891  20.9856 0001815  82.9857 277.1477 13.11414217302727"
  },
  {
    "name": "ONEWEB-0031",
    "noradId": "45431",
    "line1": "1 45431U 20020H   26168.64516763  .00000435  00000+0  11913-2 0  9990",
    "line2": "2 45431  87.8885  20.9839 0001725  90.6238 269.5088 13.11419639302716"
  },
  {
    "name": "ONEWEB-0027",
    "noradId": "45432",
    "line1": "1 45432U 20020J   26169.00003472  .00029797  00000+0  76473-1 0  9993",
    "line2": "2 45432  87.9137   5.7023 0002033 104.2720 158.6638 13.17637489  5197"
  },
  {
    "name": "ONEWEB-0064",
    "noradId": "45433",
    "line1": "1 45433U 20020K   26168.10940087  .00000398  00000+0  10859-2 0  9999",
    "line2": "2 45433  87.8889  21.0822 0001792  91.8935 268.2399 13.11417863302670"
  },
  {
    "name": "ONEWEB-0018",
    "noradId": "45434",
    "line1": "1 45434U 20020L   26168.67555135  .00000075  00000+0  17711-3 0  9995",
    "line2": "2 45434  87.8887  20.9689 0001442  79.2331 280.8959 13.11417158302691"
  },
  {
    "name": "ONEWEB-0083",
    "noradId": "45435",
    "line1": "1 45435U 20020M   26168.66566060  .00000408  00000+0  11144-2 0  9997",
    "line2": "2 45435  87.8892  20.9647 0001749  87.0044 273.1284 13.11415851302739"
  },
  {
    "name": "ONEWEB-0095",
    "noradId": "45436",
    "line1": "1 45436U 20020N   26168.50458983  .00000521  00000+0  14350-2 0  9993",
    "line2": "2 45436  87.8894  21.0053 0002478  92.4722 267.6689 13.11421182302717"
  },
  {
    "name": "ONEWEB-0092",
    "noradId": "45437",
    "line1": "1 45437U 20020P   26168.61124227 -.00000502  00000+0 -14509-2 0  9994",
    "line2": "2 45437  87.8891  20.9756 0002132  83.8866 276.2505 13.11421568302848"
  },
  {
    "name": "ONEWEB-0085",
    "noradId": "45438",
    "line1": "1 45438U 20020Q   26168.66538266  .00000417  00000+0  11396-2 0  9996",
    "line2": "2 45438  87.8886  20.9715 0001819  85.7124 274.4212 13.11415410302739"
  },
  {
    "name": "ONEWEB-0096",
    "noradId": "45439",
    "line1": "1 45439U 20020R   26168.66720445  .00000403  00000+0  11006-2 0  9992",
    "line2": "2 45439  87.8894  20.9670 0001880  88.0631 272.0712 13.11421310302720"
  },
  {
    "name": "ONEWEB-0037",
    "noradId": "45440",
    "line1": "1 45440U 20020S   26168.62403942 -.00000384  00000+0 -11126-2 0  9993",
    "line2": "2 45440  87.8906  20.9492 0001896  85.7603 274.3742 13.11913604302751"
  },
  {
    "name": "ONEWEB-0042",
    "noradId": "45441",
    "line1": "1 45441U 20020T   26168.65690894  .00000564  00000+0  15566-2 0  9991",
    "line2": "2 45441  87.8893  20.9654 0001833  82.2058 277.9278 13.11416062302720"
  },
  {
    "name": "ONEWEB-0098",
    "noradId": "45442",
    "line1": "1 45442U 20020U   26168.50021257  .00000502  00000+0  13805-2 0  9993",
    "line2": "2 45442  87.8891  21.0060 0001765  87.2645 272.8685 13.11417423302686"
  },
  {
    "name": "ONEWEB-0055",
    "noradId": "45443",
    "line1": "1 45443U 20020V   26168.63147570 -.00000180  00000+0 -54318-3 0  9994",
    "line2": "2 45443  87.8894  20.9787 0001766  87.7184 272.4147 13.11419168302674"
  },
  {
    "name": "ONEWEB-0093",
    "noradId": "45444",
    "line1": "1 45444U 20020W   26168.61138227 -.00000470  00000+0 -13628-2 0  9992",
    "line2": "2 45444  87.8893  20.9753 0001901  73.0816 287.0520 13.11415139302736"
  },
  {
    "name": "ONEWEB-0029",
    "noradId": "45445",
    "line1": "1 45445U 20020X   26168.63851254 -.00000245  00000+0 -72654-3 0  9992",
    "line2": "2 45445  87.8887  20.9795 0001725  77.7082 282.4239 13.11418799302715"
  }
]